[{"OBJECT_NAME":"ORBITER SN3","OBJECT_ID":"2023-084AE","EPOCH":"2026-03-09T23:12:21.976128","MEAN_MOTION":15.32943891,"ECCENTRICITY":0.00075889,"INCLINATION":97.61,"RA_OF_ASC_NODE":206.6768,"ARG_OF_PERICENTER":331.7947,"MEAN_ANOMALY":28.2883,"EPHEMERIS_TYPE":0,"CLASSIFICATION_TYPE":"U","NORAD_CAT_ID":56960,"ELEMENT_SET_NO":999,"REV_AT_EPOCH":15228,"BSTAR":0.00032835432,"MEAN_MOTION_DOT":0.00010378,"MEAN_MOTION_DDOT":0},{"OBJECT_NAME":"STARLINK-31012","OBJECT_ID":"2023-192A","EPOCH":"2026-03-09T05:03:33.506208","MEAN_MOTION":15.30194258,"ECCENTRICITY":0.00013249,"INCLINATION":53.1617,"RA_OF_ASC_NODE":64.8527,"ARG_OF_PERICENTER":92.8597,"MEAN_ANOMALY":267.2556,"EPHEMERIS_TYPE":0,"CLASSIFICATION_TYPE":"U","NORAD_CAT_ID":58531,"ELEMENT_SET_NO":999,"REV_AT_EPOCH":12591,"BSTAR":2.8406329e-5,"MEAN_MOTION_DOT":4.82e-6,"MEAN_MOTION_DDOT":0}]
